ONEWEB-0387             
1 49313U 21090AL  24205.28293764  .00000111  00000+0  24057-3 0  9999
2 49313  87.9184  52.5519 0001964  95.2942 264.8415 13.20772766138224
ONEWEB-0388             
1 49314U 21090AM  24206.21489318  .00000060  00000+0  11662-3 0  9997
2 49314  87.9133  82.8625 0001856  76.3195 283.8144 13.19725176136301
ONEWEB-0389             
1 50469U 21132A   24205.52248633  .00000073  00000+0  15606-3 0  9999
2 50469  87.9191 143.9903 0002184  91.3977 268.7404 13.17648286128021
ONEWEB-0390             
1 50470U 21132B   24205.37223015  .00000199  00000+0  47819-3 0  9991
2 50470  87.9190 144.0275 0001756  86.4812 273.6521 13.17649108126716
ONEWEB-0391             
1 50471U 21132C   24205.82946178  .00000015  00000+0  61126-5 0  9990
2 50471  87.9199 143.9233 0002245  88.4317 271.7071 13.17647691126774
ONEWEB-0392             
1 50472U 21132D   24206.39010424  .00000070  00000+0  14804-3 0  9990
2 50472  87.9185 143.8068 0002373  93.0402 267.1001 13.17649145128178
ONEWEB-0393             
1 50473U 21132E   24205.83284380 -.00000034  00000+0 -12155-3 0  9992
2 50473  87.9195 143.8975 0002125  86.1356 274.0018 13.17649850126809
ONEWEB-0394             
1 50474U 21132F   24205.51075704  .00000080  00000+0  16973-3 0  9997
2 50474  87.9139 113.5527 0002036  79.0882 281.0479 13.18688600130172
